{"type": "FeatureCollection", "features": [ {"type": "Feature", "properties": {"norad_id": 33917, "name": "COSMOS 2251 DEB", "group": "cosmos-2251-debris", "lat": 73.4249219743941, "lon": -177.12427918884023, "alt_km": 1124.4165501202524, "timestamp": "2025-12-20T11:30:28.769083+00:00", "meta": {"OBJECT_NAME": "COSMOS 2251 DEB", "OBJECT_ID": "1993-036DW", "EPOCH": "2025-12-20T00:32:54.666816", "MEAN_MOTION": 13.69373358, "ECCENTRICITY": 0.0331286, "INCLINATION": 74.1072, "RA_OF_ASC_NODE": 110.4516, "ARG_OF_PERICENTER": 209.8297, "MEAN_ANOMALY": 148.3576, "EPHEMERIS_TYPE": 0, "CLASSIFICATION_TYPE": "U", "NORAD_CAT_ID": 33917, "ELEMENT_SET_NO": 999, "REV_AT_EPOCH": 83833, "BSTAR": 0.00060049, "MEAN_MOTION_DOT": 7.45e-06, "MEAN_MOTION_DDOT": 0}, "tle": {"line1": "1 33917U 93036DW  25354.02285494  .00000745  00000+0  60049-3 0  9994", "line2": "2 33917  74.1072 110.4516 0331286 209.8297 148.3576 13.69373358838331"}}, "geometry": {"type": "Point", "coordinates": [-177.12427918884023, 73.4249219743941]}}, {"type": "Feature", "properties": {"norad_id": 33920, "name": "COSMOS 2251 DEB", "group": "cosmos-2251-debris", "lat": 50.006116693060015, "lon": 83.80369420165042, "alt_km": 719.0393316245536, "timestamp": "2025-12-20T11:30:28.769093+00:00", "meta": {"OBJECT_NAME": "COSMOS 2251 DEB", "OBJECT_ID": "1993-036DZ", "EPOCH": "2025-12-19T21:45:14.606784", "MEAN_MOTION": 14.58379878, "ECCENTRICITY": 0.003798, "INCLINATION": 74.0622, "RA_OF_ASC_NODE": 284.8074, "ARG_OF_PERICENTER": 290.404, "MEAN_ANOMALY": 69.3048, "EPHEMERIS_TYPE": 0, "CLASSIFICATION_TYPE": "U", "NORAD_CAT_ID": 33920, "ELEMENT_SET_NO": 999, "REV_AT_EPOCH": 88219, "BSTAR": 0.0010786, "MEAN_MOTION_DOT": 5.02e-05, "MEAN_MOTION_DDOT": 0}, "tle": {"line1": "1 33920U 93036DZ  25353.90641906  .00005020  00000+0  10786-2 0  9991", "line2": "2 33920  74.0622 284.8074 0037980 290.4040  69.3048 14.58379878882197"}}, "geometry": {"type": "Point", "coordinates": [83.80369420165042, 50.006116693060015]}}, {"type": "Feature", "properties": {"norad_id": 33922, "name": "COSMOS 2251 DEB", "group": "cosmos-2251-debris", "lat": 22.82055630115469, "lon": 140.16472771995976, "alt_km": 739.2458242400435, "timestamp": "2025-12-20T11:30:28.769104+00:00", "meta": {"OBJECT_NAME": "COSMOS 2251 DEB", "OBJECT_ID": "1993-036EB", "EPOCH": "2025-12-19T10:48:41.548896", "MEAN_MOTION": 14.49529699, "ECCENTRICITY": 0.0023184, "INCLINATION": 74.0466, "RA_OF_ASC_NODE": 135.1803, "ARG_OF_PERICENTER": 244.9711, "MEAN_ANOMALY": 171.2024, "EPHEMERIS_TYPE": 0, "CLASSIFICATION_TYPE": "U", "NORAD_CAT_ID": 33922, "ELEMENT_SET_NO": 999, "REV_AT_EPOCH": 88675, "BSTAR": 0.00034166, "MEAN_MOTION_DOT": 1.287e-05, "MEAN_MOTION_DDOT": 0}, "tle": {"line1": "1 33922U 93036EB  25353.45048089  .00001287  00000+0  34166-3 0  9996", "line2": "2 33922  74.0466 135.1803 0023184 244.9711 171.2024 14.49529699886754"}}, "geometry": {"type": "Point", "coordinates": [140.16472771995976, 22.82055630115469]}}, {"type": "Feature", "properties": {"norad_id": 33924, "name": "COSMOS 2251 DEB", "group": "cosmos-2251-debris", "lat": 66.73357213452859, "lon": -60.087461222790544, "alt_km": 1293.9477517324494, "timestamp": "2025-12-20T11:30:28.769114+00:00", "meta": {"OBJECT_NAME": "COSMOS 2251 DEB", "OBJECT_ID": "1993-036ED", "EPOCH": "2025-12-20T04:01:45.333120", "MEAN_MOTION": 13.50234434, "ECCENTRICITY": 0.0403887, "INCLINATION": 73.9134, "RA_OF_ASC_NODE": 258.2614, "ARG_OF_PERICENTER": 292.4064, "MEAN_ANOMALY": 63.4727, "EPHEMERIS_TYPE": 0, "CLASSIFICATION_TYPE": "U", "NORAD_CAT_ID": 33924, "ELEMENT_SET_NO": 999, "REV_AT_EPOCH": 82839, "BSTAR": 0.00039422, "MEAN_MOTION_DOT": 3.93e-06, "MEAN_MOTION_DDOT": 0}, "tle": {"line1": "1 33924U 93036ED  25354.16788580  .00000393  00000+0  39422-3 0  9991", "line2": "2 33924  73.9134 258.2614 0403887 292.4064  63.4727 13.50234434828393"}}, "geometry": {"type": "Point", "coordinates": [-60.087461222790544, 66.73357213452859]}}, {"type": "Feature", "properties": {"norad_id": 33928, "name": "COSMOS 2251 DEB", "group": "cosmos-2251-debris", "lat": 10.891906047722639, "lon": -145.18737374860262, "alt_km": 776.9846012278604, "timestamp": "2025-12-20T11:30:28.769124+00:00", "meta": {"OBJECT_NAME": "COSMOS 2251 DEB", "OBJECT_ID": "1993-036EH", "EPOCH": "2025-12-20T04:05:38.866272", "MEAN_MOTION": 14.47416939, "ECCENTRICITY": 0.0061833, "INCLINATION": 73.9255, "RA_OF_ASC_NODE": 38.5746, "ARG_OF_PERICENTER": 331.147, "MEAN_ANOMALY": 28.6273, "EPHEMERIS_TYPE": 0, "CLASSIFICATION_TYPE": "U", "NORAD_CAT_ID": 33928, "ELEMENT_SET_NO": 999, "REV_AT_EPOCH": 88752, "BSTAR": 0.00017222, "MEAN_MOTION_DOT": 6.17e-06, "MEAN_MOTION_DDOT": 0}, "tle": {"line1": "1 33928U 93036EH  25354.17058873  .00000617  00000+0  17222-3 0  9994", "line2": "2 33928  73.9255  38.5746 0061833 331.1470  28.6273 14.47416939887527"}}, "geometry": {"type": "Point", "coordinates": [-145.18737374860262, 10.891906047722639]}}, {"type": "Feature", "properties": {"norad_id": 33932, "name": "COSMOS 2251 DEB", "group": "cosmos-2251-debris", "lat": 61.24101631561312, "lon": -26.915042080687712, "alt_km": 739.7457511629518, "timestamp": "2025-12-20T11:30:28.769134+00:00", "meta": {"OBJECT_NAME": "COSMOS 2251 DEB", "OBJECT_ID": "1993-036EM", "EPOCH": "2025-12-19T21:51:19.577664", "MEAN_MOTION": 14.38777344, "ECCENTRICITY": 0.0035696, "INCLINATION": 74.0341, "RA_OF_ASC_NODE": 302.6915, "ARG_OF_PERICENTER": 17.1173, "MEAN_ANOMALY": 343.1175, "EPHEMERIS_TYPE": 0, "CLASSIFICATION_TYPE": "U", "NORAD_CAT_ID": 33932, "ELEMENT_SET_NO": 999, "REV_AT_EPOCH": 88101, "BSTAR": 0.00033281, "MEAN_MOTION_DOT": 1.004e-05, "MEAN_MOTION_DDOT": 0}, "tle": {"line1": "1 33932U 93036EM  25353.91064326  .00001004  00000+0  33281-3 0  9994", "line2": "2 33932  74.0341 302.6915 0035696  17.1173 343.1175 14.38777344881016"}}, "geometry": {"type": "Point", "coordinates": [-26.915042080687712, 61.24101631561312]}}, {"type": "Feature", "properties": {"norad_id": 33933, "name": "COSMOS 2251 DEB", "group": "cosmos-2251-debris", "lat": 49.39183083124579, "lon": -153.40245011481562, "alt_km": 762.3144241563623, "timestamp": "2025-12-20T11:30:28.769144+00:00", "meta": {"OBJECT_NAME": "COSMOS 2251 DEB", "OBJECT_ID": "1993-036EN", "EPOCH": "2025-12-20T04:13:15.585312", "MEAN_MOTION": 14.33499387, "ECCENTRICITY": 0.0070892, "INCLINATION": 74.0891, "RA_OF_ASC_NODE": 46.5839, "ARG_OF_PERICENTER": 52.7662, "MEAN_ANOMALY": 307.9929, "EPHEMERIS_TYPE": 0, "CLASSIFICATION_TYPE": "U", "NORAD_CAT_ID": 33933, "ELEMENT_SET_NO": 999, "REV_AT_EPOCH": 87891, "BSTAR": 0.00018604, "MEAN_MOTION_DOT": 5.04e-06, "MEAN_MOTION_DDOT": 0}, "tle": {"line1": "1 33933U 93036EN  25354.17587483  .00000504  00000+0  18604-3 0  9994", "line2": "2 33933  74.0891  46.5839 0070892  52.7662 307.9929 14.33499387878914"}}, "geometry": {"type": "Point", "coordinates": [-153.40245011481562, 49.39183083124579]}}, {"type": "Feature", "properties": {"norad_id": 33934, "name": "COSMOS 2251 DEB", "group": "cosmos-2251-debris", "lat": -54.36490853664054, "lon": -70.64282187273086, "alt_km": 692.9401127724159, "timestamp": "2025-12-20T11:30:28.769154+00:00", "meta": {"OBJECT_NAME": "COSMOS 2251 DEB", "OBJECT_ID": "1993-036EP", "EPOCH": "2025-12-19T22:54:14.856768", "MEAN_MOTION": 14.59163688, "ECCENTRICITY": 0.0015388, "INCLINATION": 74.0384, "RA_OF_ASC_NODE": 86.8257, "ARG_OF_PERICENTER": 210.536, "MEAN_ANOMALY": 149.4911, "EPHEMERIS_TYPE": 0, "CLASSIFICATION_TYPE": "U", "NORAD_CAT_ID": 33934, "ELEMENT_SET_NO": 999, "REV_AT_EPOCH": 88844, "BSTAR": 0.00057197, "MEAN_MOTION_DOT": 2.671e-05, "MEAN_MOTION_DDOT": 0}, "tle": {"line1": "1 33934U 93036EP  25353.95433862  .00002671  00000+0  57197-3 0  9998", "line2": "2 33934  74.0384  86.8257 0015388 210.5360 149.4911 14.59163688888440"}}, "geometry": {"type": "Point", "coordinates": [-70.64282187273086, -54.36490853664054]}}, {"type": "Feature", "properties": {"norad_id": 33936, "name": "COSMOS 2251 DEB", "group": "cosmos-2251-debris", "lat": -17.21197003847382, "lon": -152.21498958990992, "alt_km": 678.9478049209611, "timestamp": "2025-12-20T11:30:28.769164+00:00", "meta": {"OBJECT_NAME": "COSMOS 2251 DEB", "OBJECT_ID": "1993-036ER", "EPOCH": "2025-12-20T04:01:44.567616", "MEAN_MOTION": 14.60312743, "ECCENTRICITY": 0.002702, "INCLINATION": 74.0179, "RA_OF_ASC_NODE": 23.2868, "ARG_OF_PERICENTER": 177.0627, "MEAN_ANOMALY": 183.0703, "EPHEMERIS_TYPE": 0, "CLASSIFICATION_TYPE": "U", "NORAD_CAT_ID": 33936, "ELEMENT_SET_NO": 999, "REV_AT_EPOCH": 88998, "BSTAR": 0.00040207, "MEAN_MOTION_DOT": 1.923e-05, "MEAN_MOTION_DDOT": 0}, "tle": {"line1": "1 33936U 93036ER  25354.16787694  .00001923  00000+0  40207-3 0  9992", "line2": "2 33936  74.0179  23.2868 0027020 177.0627 183.0703 14.60312743889989"}}, "geometry": {"type": "Point", "coordinates": [-152.21498958990992, -17.21197003847382]}}, {"type": "Feature", "properties": {"norad_id": 33938, "name": "COSMOS 2251 DEB", "group": "cosmos-2251-debris", "lat": 34.25795163842637, "lon": -156.03745300926934, "alt_km": 739.8000538969809, "timestamp": "2025-12-20T11:30:28.769173+00:00", "meta": {"OBJECT_NAME": "COSMOS 2251 DEB", "OBJECT_ID": "1993-036ET", "EPOCH": "2025-12-20T00:25:43.082400", "MEAN_MOTION": 14.46813427, "ECCENTRICITY": 0.0016834, "INCLINATION": 74.0437, "RA_OF_ASC_NODE": 193.5876, "ARG_OF_PERICENTER": 275.1249, "MEAN_ANOMALY": 237.1501, "EPHEMERIS_TYPE": 0, "CLASSIFICATION_TYPE": "U", "NORAD_CAT_ID": 33938, "ELEMENT_SET_NO": 999, "REV_AT_EPOCH": 88505, "BSTAR": 0.00029325, "MEAN_MOTION_DOT": 1.037e-05, "MEAN_MOTION_DDOT": 0}, "tle": {"line1": "1 33938U 93036ET  25354.01785975  .00001037  00000+0  29325-3 0  9992", "line2": "2 33938  74.0437 193.5876 0016834 275.1249 237.1501 14.46813427885059"}}, "geometry": {"type": "Point", "coordinates": [-156.03745300926934, 34.25795163842637]}}]}